(Block-name: Header)
(Block-expand: 0)
(Block-enable: 1)
M3 S12000
G4 P3
G0 Z10
(Block-name: Shape2DView)
(Block-expand: 0)
(Block-enable: 0)
(Block-X: g0 z3)
(Block-X: g0 x54.73 y70)
(Block-X: g0 z0)
(Block-X: [entered])
(Block-X: g1 x54.73 y0 z0 f400)
(Block-X: g1 x0 y0 z0)
(Block-X: g1 x0 y70 z0)
(Block-X: g1 x54.73 y70 z0)
(Block-X: [exiting])
(Block-X: g0 z3)
(Block-name: Shape2DView003 [in,conventional,cw,cut:-2])
(Block-expand: 0)
(Block-enable: 1)
(pass -1.000000)
g0 z3
g0 x81.5 y29.856982
g1 z-1 f100
(entered)
g1 x81.5 y13.872847 z-1 f600
g1 x81.492153 y13.865 z-1
g1 x68.007847 y13.865 z-1
g1 x68 y13.872847 z-1
g1 x68 y29.857153 z-1
g1 x68.007847 y29.865 z-1
g1 x81.5 y29.856982 z-1
(pass -2.000000)
g0 x81.5 y29.856982
g1 z-2 f100
(entered)
g1 x81.5 y13.872847 z-2 f600
g1 x81.492153 y13.865 z-2
g1 x68.007847 y13.865 z-2
g1 x68 y13.872847 z-2
g1 x68 y29.857153 z-2
g1 x68.007847 y29.865 z-2
g1 x81.5 y29.856982 z-2
(exiting)
g0 z3
(Block-name: Shape2DView003 [in,conventional,cw,cut:-2])
(Block-expand: 0)
(Block-enable: 1)
(pass -1.000000)
g0 z3
g0 x85 y47.856982
g1 z-1 f100
(entered)
g1 x85 y33.872847 z-1 f600
g1 x84.992153 y33.865 z-1
g1 x68.007847 y33.865 z-1
g1 x68 y33.872847 z-1
g1 x68 y47.857153 z-1
g1 x68.007847 y47.865 z-1
g1 x85 y47.856982 z-1
(pass -2.000000)
g0 x85 y47.856982
g1 z-2 f100
(entered)
g1 x85 y33.872847 z-2 f600
g1 x84.992153 y33.865 z-2
g1 x68.007847 y33.865 z-2
g1 x68 y33.872847 z-2
g1 x68 y47.857153 z-2
g1 x68.007847 y47.865 z-2
g1 x85 y47.856982 z-2
(exiting)
g0 z3
(Block-name: Shape2DView003 [in,conventional,cw,cut:-2])
(Block-expand: 0)
(Block-enable: 1)
(pass -1.000000)
g0 z3
g0 x85 y65.856982
g1 z-1 f100
(entered)
g1 x85 y51.872847 z-1 f600
g1 x84.992153 y51.865 z-1
g1 x68.007847 y51.865 z-1
g1 x68 y51.872847 z-1
g1 x68 y65.857153 z-1
g1 x68.007847 y65.865 z-1
g1 x85 y65.856982 z-1
(pass -2.000000)
g0 x85 y65.856982
g1 z-2 f100
(entered)
g1 x85 y51.872847 z-2 f600
g1 x84.992153 y51.865 z-2
g1 x68.007847 y51.865 z-2
g1 x68 y51.872847 z-2
g1 x68 y65.857153 z-2
g1 x68.007847 y65.865 z-2
g1 x85 y65.856982 z-2
(exiting)
g0 z3
(Block-name: Shape2DView003 [out,conventional,ccw,cut:-2])
(Block-expand: 0)
(Block-enable: 1)
(pass -1.000000)
g0 z3
g0 x112.73 y70
g1 z-1 f100
(entered)
g3 x111.73 y71 i-1 j0 z-1  f600
g1 x57 y71 z-1
g3 x56 y70 i0 j-1 z-1 
g1 x56 y0 z-1
g3 x57 y-1 i1 j0 z-1 
g1 x111.73 y-1 z-1
g3 x112.73 y0 i0 j1 z-1 
g1 x112.73 y70 z-1
(pass -2.000000)
g0 x112.73 y70
g1 z-2 f100
(entered)
g3 x111.73 y71 i-1 j0 z-2  f600
g1 x57 y71 z-2
g3 x56 y70 i0 j-1 z-2 
g1 x56 y0 z-2
g3 x57 y-1 i1 j0 z-2 
g1 x111.73 y-1 z-2
g3 x112.73 y0 i0 j1 z-2 
g1 x112.73 y70 z-2
(exiting)
g0 z3
(Block-name: Shape2DView [out,conventional,ccw,cut:-2])
(Block-expand: 0)
(Block-enable: 1)
(pass -1.000000)
g0 z3
g0 x55.73 y70
g1 z-1 f100
(entered)
g3 x54.73 y71 i-1 j0 z-1  f600
g1 x0 y71 z-1
g3 x-1 y70 i0 j-1 z-1 
g1 x-1 y0 z-1
g3 x0 y-1 i1 j0 z-1 
g1 x54.73 y-1 z-1
g3 x55.73 y0 i0 j1 z-1 
g1 x55.73 y70 z-1
(pass -2.000000)
g0 x55.73 y70
g1 z-2 f100
(entered)
g3 x54.73 y71 i-1 j0 z-2  f600
g1 x0 y71 z-2
g3 x-1 y70 i0 j-1 z-2 
g1 x-1 y0 z-2
g3 x0 y-1 i1 j0 z-2 
g1 x54.73 y-1 z-2
g3 x55.73 y0 i0 j1 z-2 
g1 x55.73 y70 z-2
(exiting)
g0 z3
(Block-name: Shape2DView003)
(Block-expand: 0)
(Block-enable: 0)
(Block-X: g0 z3)
(Block-X: g0 x111.73 y70)
(Block-X: g0 z0)
(Block-X: [entered])
(Block-X: g1 x111.73 y0 z0 f400)
(Block-X: g1 x57 y0 z0)
(Block-X: g1 x57 y70 z0)
(Block-X: g1 x111.73 y70 z0)
(Block-X: [exiting])
(Block-X: g0 z3)
(Block-name: Shape2DView003)
(Block-expand: 0)
(Block-enable: 0)
(Block-X: g0 z3)
(Block-X: g0 x85 y48.865)
(Block-X: g0 z0)
(Block-X: [entered])
(Block-X: g1 x85.032052 y48.864486 z0 f400)
(Block-X: g1 x85.06407 y48.862945 z0)
(Block-X: g1 x85.096023 y48.860379 z0)
(Block-X: g1 x85.127877 y48.85679 z0)
(Block-X: g1 x85.1596 y48.852182 z0)
(Block-X: g1 x85.191159 y48.846559 z0)
(Block-X: g1 x85.222521 y48.839928 z0)
(Block-X: g1 x85.253655 y48.832295 z0)
(Block-X: g1 x85.284528 y48.823668 z0)
(Block-X: g1 x85.315108 y48.814056 z0)
(Block-X: g1 x85.345365 y48.803468 z0)
(Block-X: g1 x85.375267 y48.791917 z0)
(Block-X: g1 x85.404783 y48.779413 z0)
(Block-X: g1 x85.433884 y48.765969 z0)
(Block-X: g1 x85.462538 y48.751599 z0)
(Block-X: g1 x85.490718 y48.736319 z0)
(Block-X: g1 x85.518393 y48.720143 z0)
(Block-X: g1 x85.545535 y48.703088 z0)
(Block-X: g1 x85.572117 y48.685172 z0)
(Block-X: g1 x85.598111 y48.666414 z0)
(Block-X: g1 x85.62349 y48.646831 z0)
(Block-X: g1 x85.648228 y48.626446 z0)
(Block-X: g1 x85.672301 y48.605278 z0)
(Block-X: g1 x85.695683 y48.583349 z0)
(Block-X: g1 x85.718349 y48.560683 z0)
(Block-X: g1 x85.740278 y48.537301 z0)
(Block-X: g1 x85.761446 y48.513228 z0)
(Block-X: g1 x85.781831 y48.48849 z0)
(Block-X: g1 x85.801414 y48.46311 z0)
(Block-X: g1 x85.820172 y48.437117 z0)
(Block-X: g1 x85.838088 y48.410535 z0)
(Block-X: g1 x85.855143 y48.383393 z0)
(Block-X: g1 x85.871319 y48.355718 z0)
(Block-X: g1 x85.886599 y48.327538 z0)
(Block-X: g1 x85.900969 y48.298884 z0)
(Block-X: g1 x85.914413 y48.269783 z0)
(Block-X: g1 x85.926917 y48.240267 z0)
(Block-X: g1 x85.938468 y48.210365 z0)
(Block-X: g1 x85.949056 y48.180108 z0)
(Block-X: g1 x85.958668 y48.149528 z0)
(Block-X: g1 x85.967295 y48.118655 z0)
(Block-X: g1 x85.974928 y48.087521 z0)
(Block-X: g1 x85.981559 y48.056159 z0)
(Block-X: g1 x85.987182 y48.0246 z0)
(Block-X: g1 x85.99179 y47.992877 z0)
(Block-X: g1 x85.995379 y47.961023 z0)
(Block-X: g1 x85.997945 y47.92907 z0)
(Block-X: g1 x85.999486 y47.897052 z0)
(Block-X: g1 x86 y47.865 z0)
(Block-X: g1 x86 y33.865 z0)
(Block-X: g1 x85.999507 y33.833589 z0)
(Block-X: g1 x85.998027 y33.802209 z0)
(Block-X: g1 x85.995562 y33.770892 z0)
(Block-X: g1 x85.992115 y33.739667 z0)
(Block-X: g1 x85.987688 y33.708565 z0)
(Block-X: g1 x85.982287 y33.677619 z0)
(Block-X: g1 x85.975917 y33.646857 z0)
(Block-X: g1 x85.968583 y33.61631 z0)
(Block-X: g1 x85.960294 y33.586009 z0)
(Block-X: g1 x85.951057 y33.555983 z0)
(Block-X: g1 x85.940881 y33.526262 z0)
(Block-X: g1 x85.929777 y33.496875 z0)
(Block-X: g1 x85.917755 y33.467852 z0)
(Block-X: g1 x85.904827 y33.439221 z0)
(Block-X: g1 x85.891007 y33.411009 z0)
(Block-X: g1 x85.876307 y33.383246 z0)
(Block-X: g1 x85.860742 y33.355959 z0)
(Block-X: g1 x85.844328 y33.329173 z0)
(Block-X: g1 x85.827081 y33.302917 z0)
(Block-X: g1 x85.809017 y33.277215 z0)
(Block-X: g1 x85.790155 y33.252093 z0)
(Block-X: g1 x85.770513 y33.227576 z0)
(Block-X: g1 x85.750111 y33.203688 z0)
(Block-X: g1 x85.728969 y33.180453 z0)
(Block-X: g1 x85.707107 y33.157893 z0)
(Block-X: g1 x85.684547 y33.136031 z0)
(Block-X: g1 x85.661312 y33.114889 z0)
(Block-X: g1 x85.637424 y33.094487 z0)
(Block-X: g1 x85.612907 y33.074845 z0)
(Block-X: g1 x85.587785 y33.055983 z0)
(Block-X: g1 x85.562083 y33.037919 z0)
(Block-X: g1 x85.535827 y33.020672 z0)
(Block-X: g1 x85.509041 y33.004258 z0)
(Block-X: g1 x85.481754 y32.988693 z0)
(Block-X: g1 x85.453991 y32.973993 z0)
(Block-X: g1 x85.425779 y32.960173 z0)
(Block-X: g1 x85.397148 y32.947245 z0)
(Block-X: g1 x85.368125 y32.935223 z0)
(Block-X: g1 x85.338738 y32.924119 z0)
(Block-X: g1 x85.309017 y32.913944 z0)
(Block-X: g1 x85.278991 y32.904706 z0)
(Block-X: g1 x85.24869 y32.896417 z0)
(Block-X: g1 x85.218143 y32.889083 z0)
(Block-X: g1 x85.187381 y32.882713 z0)
(Block-X: g1 x85.156435 y32.877312 z0)
(Block-X: g1 x85.125333 y32.872885 z0)
(Block-X: g1 x85.094108 y32.869438 z0)
(Block-X: g1 x85.062791 y32.866973 z0)
(Block-X: g1 x85.031411 y32.865493 z0)
(Block-X: g1 x85 y32.865 z0)
(Block-X: g1 x68 y32.865 z0)
(Block-X: g1 x67.968589 y32.865493 z0)
(Block-X: g1 x67.937209 y32.866973 z0)
(Block-X: g1 x67.905892 y32.869438 z0)
(Block-X: g1 x67.874667 y32.872885 z0)
(Block-X: g1 x67.843565 y32.877312 z0)
(Block-X: g1 x67.812619 y32.882713 z0)
(Block-X: g1 x67.781857 y32.889083 z0)
(Block-X: g1 x67.75131 y32.896417 z0)
(Block-X: g1 x67.721009 y32.904706 z0)
(Block-X: g1 x67.690983 y32.913944 z0)
(Block-X: g1 x67.661262 y32.924119 z0)
(Block-X: g1 x67.631875 y32.935223 z0)
(Block-X: g1 x67.602852 y32.947245 z0)
(Block-X: g1 x67.574221 y32.960173 z0)
(Block-X: g1 x67.546009 y32.973993 z0)
(Block-X: g1 x67.518246 y32.988693 z0)
(Block-X: g1 x67.490959 y33.004258 z0)
(Block-X: g1 x67.464173 y33.020672 z0)
(Block-X: g1 x67.437917 y33.037919 z0)
(Block-X: g1 x67.412215 y33.055983 z0)
(Block-X: g1 x67.387093 y33.074845 z0)
(Block-X: g1 x67.362576 y33.094487 z0)
(Block-X: g1 x67.338688 y33.114889 z0)
(Block-X: g1 x67.315453 y33.136031 z0)
(Block-X: g1 x67.292893 y33.157893 z0)
(Block-X: g1 x67.271031 y33.180453 z0)
(Block-X: g1 x67.249889 y33.203688 z0)
(Block-X: g1 x67.229487 y33.227576 z0)
(Block-X: g1 x67.209845 y33.252093 z0)
(Block-X: g1 x67.190983 y33.277215 z0)
(Block-X: g1 x67.172919 y33.302917 z0)
(Block-X: g1 x67.155672 y33.329173 z0)
(Block-X: g1 x67.139258 y33.355959 z0)
(Block-X: g1 x67.123693 y33.383246 z0)
(Block-X: g1 x67.108993 y33.411009 z0)
(Block-X: g1 x67.095173 y33.439221 z0)
(Block-X: g1 x67.082245 y33.467852 z0)
(Block-X: g1 x67.070223 y33.496875 z0)
(Block-X: g1 x67.059119 y33.526262 z0)
(Block-X: g1 x67.048943 y33.555983 z0)
(Block-X: g1 x67.039706 y33.586009 z0)
(Block-X: g1 x67.031417 y33.61631 z0)
(Block-X: g1 x67.024083 y33.646857 z0)
(Block-X: g1 x67.017713 y33.677619 z0)
(Block-X: g1 x67.012312 y33.708565 z0)
(Block-X: g1 x67.007885 y33.739667 z0)
(Block-X: g1 x67.004438 y33.770892 z0)
(Block-X: g1 x67.001973 y33.802209 z0)
(Block-X: g1 x67.000493 y33.833589 z0)
(Block-X: g1 x67 y33.865 z0)
(Block-X: g1 x67 y47.865 z0)
(Block-X: g1 x67.000493 y47.896411 z0)
(Block-X: g1 x67.001973 y47.927791 z0)
(Block-X: g1 x67.004438 y47.959108 z0)
(Block-X: g1 x67.007885 y47.990333 z0)
(Block-X: g1 x67.012312 y48.021434 z0)
(Block-X: g1 x67.017713 y48.052381 z0)
(Block-X: g1 x67.024083 y48.083143 z0)
(Block-X: g1 x67.031417 y48.11369 z0)
(Block-X: g1 x67.039706 y48.143991 z0)
(Block-X: g1 x67.048943 y48.174017 z0)
(Block-X: g1 x67.059119 y48.203738 z0)
(Block-X: g1 x67.070223 y48.233125 z0)
(Block-X: g1 x67.082245 y48.262148 z0)
(Block-X: g1 x67.095173 y48.290779 z0)
(Block-X: g1 x67.108993 y48.31899 z0)
(Block-X: g1 x67.123693 y48.346754 z0)
(Block-X: g1 x67.139258 y48.374041 z0)
(Block-X: g1 x67.155672 y48.400827 z0)
(Block-X: g1 x67.172919 y48.427083 z0)
(Block-X: g1 x67.190983 y48.452785 z0)
(Block-X: g1 x67.209845 y48.477907 z0)
(Block-X: g1 x67.229487 y48.502424 z0)
(Block-X: g1 x67.249889 y48.526312 z0)
(Block-X: g1 x67.271031 y48.549547 z0)
(Block-X: g1 x67.292893 y48.572107 z0)
(Block-X: g1 x67.315453 y48.593969 z0)
(Block-X: g1 x67.338688 y48.615111 z0)
(Block-X: g1 x67.362576 y48.635513 z0)
(Block-X: g1 x67.387093 y48.655155 z0)
(Block-X: g1 x67.412215 y48.674017 z0)
(Block-X: g1 x67.437917 y48.692081 z0)
(Block-X: g1 x67.464173 y48.709328 z0)
(Block-X: g1 x67.490959 y48.725742 z0)
(Block-X: g1 x67.518246 y48.741307 z0)
(Block-X: g1 x67.546009 y48.756006 z0)
(Block-X: g1 x67.574221 y48.769827 z0)
(Block-X: g1 x67.602852 y48.782755 z0)
(Block-X: g1 x67.631875 y48.794776 z0)
(Block-X: g1 x67.661262 y48.805881 z0)
(Block-X: g1 x67.690983 y48.816057 z0)
(Block-X: g1 x67.721009 y48.825294 z0)
(Block-X: g1 x67.75131 y48.833583 z0)
(Block-X: g1 x67.781857 y48.840917 z0)
(Block-X: g1 x67.812619 y48.847287 z0)
(Block-X: g1 x67.843565 y48.852688 z0)
(Block-X: g1 x67.874667 y48.857115 z0)
(Block-X: g1 x67.905892 y48.860562 z0)
(Block-X: g1 x67.937209 y48.863027 z0)
(Block-X: g1 x67.968589 y48.864507 z0)
(Block-X: g1 x68 y48.865 z0)
(Block-X: g1 x85 y48.865 z0)
(Block-X: [exiting])
(Block-X: g0 z3)
(Block-name: Shape2DView003)
(Block-expand: 0)
(Block-enable: 0)
(Block-X: g0 z3)
(Block-X: g0 x85 y66.865)
(Block-X: g0 z0)
(Block-X: [entered])
(Block-X: g1 x85.032052 y66.864486 z0 f400)
(Block-X: g1 x85.06407 y66.862945 z0)
(Block-X: g1 x85.096023 y66.860379 z0)
(Block-X: g1 x85.127877 y66.85679 z0)
(Block-X: g1 x85.1596 y66.852182 z0)
(Block-X: g1 x85.191159 y66.846559 z0)
(Block-X: g1 x85.222521 y66.839928 z0)
(Block-X: g1 x85.253655 y66.832295 z0)
(Block-X: g1 x85.284528 y66.823668 z0)
(Block-X: g1 x85.315108 y66.814056 z0)
(Block-X: g1 x85.345365 y66.803468 z0)
(Block-X: g1 x85.375267 y66.791917 z0)
(Block-X: g1 x85.404783 y66.779413 z0)
(Block-X: g1 x85.433884 y66.765969 z0)
(Block-X: g1 x85.462538 y66.751599 z0)
(Block-X: g1 x85.490718 y66.736319 z0)
(Block-X: g1 x85.518393 y66.720143 z0)
(Block-X: g1 x85.545535 y66.703088 z0)
(Block-X: g1 x85.572117 y66.685172 z0)
(Block-X: g1 x85.598111 y66.666414 z0)
(Block-X: g1 x85.62349 y66.646832 z0)
(Block-X: g1 x85.648228 y66.626446 z0)
(Block-X: g1 x85.672301 y66.605278 z0)
(Block-X: g1 x85.695683 y66.583349 z0)
(Block-X: g1 x85.718349 y66.560683 z0)
(Block-X: g1 x85.740278 y66.537301 z0)
(Block-X: g1 x85.761446 y66.513228 z0)
(Block-X: g1 x85.781831 y66.48849 z0)
(Block-X: g1 x85.801414 y66.46311 z0)
(Block-X: g1 x85.820172 y66.437117 z0)
(Block-X: g1 x85.838088 y66.410535 z0)
(Block-X: g1 x85.855143 y66.383393 z0)
(Block-X: g1 x85.871319 y66.355718 z0)
(Block-X: g1 x85.886599 y66.327538 z0)
(Block-X: g1 x85.900969 y66.298884 z0)
(Block-X: g1 x85.914413 y66.269783 z0)
(Block-X: g1 x85.926917 y66.240267 z0)
(Block-X: g1 x85.938468 y66.210365 z0)
(Block-X: g1 x85.949056 y66.180108 z0)
(Block-X: g1 x85.958668 y66.149528 z0)
(Block-X: g1 x85.967295 y66.118655 z0)
(Block-X: g1 x85.974928 y66.087521 z0)
(Block-X: g1 x85.981559 y66.056159 z0)
(Block-X: g1 x85.987182 y66.0246 z0)
(Block-X: g1 x85.99179 y65.992877 z0)
(Block-X: g1 x85.995379 y65.961023 z0)
(Block-X: g1 x85.997945 y65.92907 z0)
(Block-X: g1 x85.999486 y65.897052 z0)
(Block-X: g1 x86 y65.865 z0)
(Block-X: g1 x86 y51.865 z0)
(Block-X: g1 x85.999507 y51.833589 z0)
(Block-X: g1 x85.998027 y51.802209 z0)
(Block-X: g1 x85.995562 y51.770892 z0)
(Block-X: g1 x85.992115 y51.739667 z0)
(Block-X: g1 x85.987688 y51.708565 z0)
(Block-X: g1 x85.982287 y51.677619 z0)
(Block-X: g1 x85.975917 y51.646857 z0)
(Block-X: g1 x85.968583 y51.61631 z0)
(Block-X: g1 x85.960294 y51.586009 z0)
(Block-X: g1 x85.951057 y51.555983 z0)
(Block-X: g1 x85.940881 y51.526262 z0)
(Block-X: g1 x85.929777 y51.496875 z0)
(Block-X: g1 x85.917755 y51.467852 z0)
(Block-X: g1 x85.904827 y51.439221 z0)
(Block-X: g1 x85.891007 y51.411009 z0)
(Block-X: g1 x85.876307 y51.383246 z0)
(Block-X: g1 x85.860742 y51.355959 z0)
(Block-X: g1 x85.844328 y51.329173 z0)
(Block-X: g1 x85.827081 y51.302917 z0)
(Block-X: g1 x85.809017 y51.277215 z0)
(Block-X: g1 x85.790155 y51.252093 z0)
(Block-X: g1 x85.770513 y51.227576 z0)
(Block-X: g1 x85.750111 y51.203688 z0)
(Block-X: g1 x85.728969 y51.180453 z0)
(Block-X: g1 x85.707107 y51.157893 z0)
(Block-X: g1 x85.684547 y51.136031 z0)
(Block-X: g1 x85.661312 y51.114889 z0)
(Block-X: g1 x85.637424 y51.094487 z0)
(Block-X: g1 x85.612907 y51.074845 z0)
(Block-X: g1 x85.587785 y51.055983 z0)
(Block-X: g1 x85.562083 y51.037919 z0)
(Block-X: g1 x85.535827 y51.020672 z0)
(Block-X: g1 x85.509041 y51.004258 z0)
(Block-X: g1 x85.481754 y50.988693 z0)
(Block-X: g1 x85.453991 y50.973993 z0)
(Block-X: g1 x85.425779 y50.960173 z0)
(Block-X: g1 x85.397148 y50.947245 z0)
(Block-X: g1 x85.368125 y50.935223 z0)
(Block-X: g1 x85.338738 y50.924119 z0)
(Block-X: g1 x85.309017 y50.913944 z0)
(Block-X: g1 x85.278991 y50.904706 z0)
(Block-X: g1 x85.24869 y50.896417 z0)
(Block-X: g1 x85.218143 y50.889083 z0)
(Block-X: g1 x85.187381 y50.882713 z0)
(Block-X: g1 x85.156435 y50.877312 z0)
(Block-X: g1 x85.125333 y50.872885 z0)
(Block-X: g1 x85.094108 y50.869438 z0)
(Block-X: g1 x85.062791 y50.866973 z0)
(Block-X: g1 x85.031411 y50.865493 z0)
(Block-X: g1 x85 y50.865 z0)
(Block-X: g1 x68 y50.865 z0)
(Block-X: g1 x67.968589 y50.865493 z0)
(Block-X: g1 x67.937209 y50.866973 z0)
(Block-X: g1 x67.905892 y50.869438 z0)
(Block-X: g1 x67.874667 y50.872885 z0)
(Block-X: g1 x67.843565 y50.877312 z0)
(Block-X: g1 x67.812619 y50.882713 z0)
(Block-X: g1 x67.781857 y50.889083 z0)
(Block-X: g1 x67.75131 y50.896417 z0)
(Block-X: g1 x67.721009 y50.904706 z0)
(Block-X: g1 x67.690983 y50.913944 z0)
(Block-X: g1 x67.661262 y50.924119 z0)
(Block-X: g1 x67.631875 y50.935223 z0)
(Block-X: g1 x67.602852 y50.947245 z0)
(Block-X: g1 x67.574221 y50.960173 z0)
(Block-X: g1 x67.546009 y50.973993 z0)
(Block-X: g1 x67.518246 y50.988693 z0)
(Block-X: g1 x67.490959 y51.004258 z0)
(Block-X: g1 x67.464173 y51.020672 z0)
(Block-X: g1 x67.437917 y51.037919 z0)
(Block-X: g1 x67.412215 y51.055983 z0)
(Block-X: g1 x67.387093 y51.074845 z0)
(Block-X: g1 x67.362576 y51.094487 z0)
(Block-X: g1 x67.338688 y51.114889 z0)
(Block-X: g1 x67.315453 y51.136031 z0)
(Block-X: g1 x67.292893 y51.157893 z0)
(Block-X: g1 x67.271031 y51.180453 z0)
(Block-X: g1 x67.249889 y51.203688 z0)
(Block-X: g1 x67.229487 y51.227576 z0)
(Block-X: g1 x67.209845 y51.252093 z0)
(Block-X: g1 x67.190983 y51.277215 z0)
(Block-X: g1 x67.172919 y51.302917 z0)
(Block-X: g1 x67.155672 y51.329173 z0)
(Block-X: g1 x67.139258 y51.355959 z0)
(Block-X: g1 x67.123693 y51.383246 z0)
(Block-X: g1 x67.108993 y51.411009 z0)
(Block-X: g1 x67.095173 y51.439221 z0)
(Block-X: g1 x67.082245 y51.467852 z0)
(Block-X: g1 x67.070223 y51.496875 z0)
(Block-X: g1 x67.059119 y51.526262 z0)
(Block-X: g1 x67.048943 y51.555983 z0)
(Block-X: g1 x67.039706 y51.586009 z0)
(Block-X: g1 x67.031417 y51.61631 z0)
(Block-X: g1 x67.024083 y51.646857 z0)
(Block-X: g1 x67.017713 y51.677619 z0)
(Block-X: g1 x67.012312 y51.708565 z0)
(Block-X: g1 x67.007885 y51.739667 z0)
(Block-X: g1 x67.004438 y51.770892 z0)
(Block-X: g1 x67.001973 y51.802209 z0)
(Block-X: g1 x67.000493 y51.833589 z0)
(Block-X: g1 x67 y51.865 z0)
(Block-X: g1 x67 y65.865 z0)
(Block-X: g1 x67.000493 y65.896411 z0)
(Block-X: g1 x67.001973 y65.927791 z0)
(Block-X: g1 x67.004438 y65.959108 z0)
(Block-X: g1 x67.007885 y65.990333 z0)
(Block-X: g1 x67.012312 y66.021434 z0)
(Block-X: g1 x67.017713 y66.052381 z0)
(Block-X: g1 x67.024083 y66.083143 z0)
(Block-X: g1 x67.031417 y66.11369 z0)
(Block-X: g1 x67.039706 y66.143991 z0)
(Block-X: g1 x67.048943 y66.174017 z0)
(Block-X: g1 x67.059119 y66.203738 z0)
(Block-X: g1 x67.070223 y66.233125 z0)
(Block-X: g1 x67.082245 y66.262148 z0)
(Block-X: g1 x67.095173 y66.290779 z0)
(Block-X: g1 x67.108993 y66.31899 z0)
(Block-X: g1 x67.123693 y66.346754 z0)
(Block-X: g1 x67.139258 y66.374041 z0)
(Block-X: g1 x67.155672 y66.400827 z0)
(Block-X: g1 x67.172919 y66.427083 z0)
(Block-X: g1 x67.190983 y66.452785 z0)
(Block-X: g1 x67.209845 y66.477907 z0)
(Block-X: g1 x67.229487 y66.502424 z0)
(Block-X: g1 x67.249889 y66.526312 z0)
(Block-X: g1 x67.271031 y66.549547 z0)
(Block-X: g1 x67.292893 y66.572107 z0)
(Block-X: g1 x67.315453 y66.593969 z0)
(Block-X: g1 x67.338688 y66.615111 z0)
(Block-X: g1 x67.362576 y66.635513 z0)
(Block-X: g1 x67.387093 y66.655155 z0)
(Block-X: g1 x67.412215 y66.674017 z0)
(Block-X: g1 x67.437917 y66.692081 z0)
(Block-X: g1 x67.464173 y66.709328 z0)
(Block-X: g1 x67.490959 y66.725742 z0)
(Block-X: g1 x67.518246 y66.741307 z0)
(Block-X: g1 x67.546009 y66.756006 z0)
(Block-X: g1 x67.574221 y66.769827 z0)
(Block-X: g1 x67.602852 y66.782755 z0)
(Block-X: g1 x67.631875 y66.794776 z0)
(Block-X: g1 x67.661262 y66.805881 z0)
(Block-X: g1 x67.690983 y66.816057 z0)
(Block-X: g1 x67.721009 y66.825294 z0)
(Block-X: g1 x67.75131 y66.833583 z0)
(Block-X: g1 x67.781857 y66.840917 z0)
(Block-X: g1 x67.812619 y66.847287 z0)
(Block-X: g1 x67.843565 y66.852688 z0)
(Block-X: g1 x67.874667 y66.857115 z0)
(Block-X: g1 x67.905892 y66.860562 z0)
(Block-X: g1 x67.937209 y66.863027 z0)
(Block-X: g1 x67.968589 y66.864507 z0)
(Block-X: g1 x68 y66.865 z0)
(Block-X: g1 x85 y66.865 z0)
(Block-X: [exiting])
(Block-X: g0 z3)
(Block-name: Shape2DView003)
(Block-expand: 0)
(Block-enable: 0)
(Block-X: g0 z3)
(Block-X: g0 x81.5 y30.865)
(Block-X: g0 z0)
(Block-X: [entered])
(Block-X: g1 x81.532052 y30.864486 z0 f400)
(Block-X: g1 x81.56407 y30.862945 z0)
(Block-X: g1 x81.596023 y30.860379 z0)
(Block-X: g1 x81.627877 y30.85679 z0)
(Block-X: g1 x81.6596 y30.852182 z0)
(Block-X: g1 x81.691159 y30.846559 z0)
(Block-X: g1 x81.722521 y30.839928 z0)
(Block-X: g1 x81.753655 y30.832295 z0)
(Block-X: g1 x81.784528 y30.823668 z0)
(Block-X: g1 x81.815108 y30.814056 z0)
(Block-X: g1 x81.845365 y30.803468 z0)
(Block-X: g1 x81.875267 y30.791917 z0)
(Block-X: g1 x81.904783 y30.779413 z0)
(Block-X: g1 x81.933884 y30.765969 z0)
(Block-X: g1 x81.962538 y30.751599 z0)
(Block-X: g1 x81.990718 y30.736319 z0)
(Block-X: g1 x82.018393 y30.720143 z0)
(Block-X: g1 x82.045535 y30.703088 z0)
(Block-X: g1 x82.072117 y30.685172 z0)
(Block-X: g1 x82.098111 y30.666414 z0)
(Block-X: g1 x82.12349 y30.646832 z0)
(Block-X: g1 x82.148228 y30.626446 z0)
(Block-X: g1 x82.172301 y30.605278 z0)
(Block-X: g1 x82.195683 y30.583349 z0)
(Block-X: g1 x82.218349 y30.560683 z0)
(Block-X: g1 x82.240278 y30.537301 z0)
(Block-X: g1 x82.261446 y30.513228 z0)
(Block-X: g1 x82.281831 y30.48849 z0)
(Block-X: g1 x82.301414 y30.46311 z0)
(Block-X: g1 x82.320172 y30.437117 z0)
(Block-X: g1 x82.338088 y30.410535 z0)
(Block-X: g1 x82.355143 y30.383393 z0)
(Block-X: g1 x82.371319 y30.355718 z0)
(Block-X: g1 x82.386599 y30.327538 z0)
(Block-X: g1 x82.400969 y30.298884 z0)
(Block-X: g1 x82.414413 y30.269783 z0)
(Block-X: g1 x82.426917 y30.240267 z0)
(Block-X: g1 x82.438468 y30.210365 z0)
(Block-X: g1 x82.449056 y30.180108 z0)
(Block-X: g1 x82.458668 y30.149528 z0)
(Block-X: g1 x82.467295 y30.118655 z0)
(Block-X: g1 x82.474928 y30.087521 z0)
(Block-X: g1 x82.481559 y30.056159 z0)
(Block-X: g1 x82.487182 y30.0246 z0)
(Block-X: g1 x82.49179 y29.992877 z0)
(Block-X: g1 x82.495379 y29.961023 z0)
(Block-X: g1 x82.497945 y29.92907 z0)
(Block-X: g1 x82.499486 y29.897052 z0)
(Block-X: g1 x82.5 y29.865 z0)
(Block-X: g1 x82.5 y13.865 z0)
(Block-X: g1 x82.499507 y13.833589 z0)
(Block-X: g1 x82.498027 y13.80221 z0)
(Block-X: g1 x82.495562 y13.770892 z0)
(Block-X: g1 x82.492115 y13.739667 z0)
(Block-X: g1 x82.487688 y13.708566 z0)
(Block-X: g1 x82.482287 y13.677619 z0)
(Block-X: g1 x82.475917 y13.646857 z0)
(Block-X: g1 x82.468583 y13.61631 z0)
(Block-X: g1 x82.460294 y13.586009 z0)
(Block-X: g1 x82.451057 y13.555983 z0)
(Block-X: g1 x82.440881 y13.526262 z0)
(Block-X: g1 x82.429777 y13.496875 z0)
(Block-X: g1 x82.417755 y13.467852 z0)
(Block-X: g1 x82.404827 y13.439221 z0)
(Block-X: g1 x82.391007 y13.41101 z0)
(Block-X: g1 x82.376307 y13.383246 z0)
(Block-X: g1 x82.360742 y13.355959 z0)
(Block-X: g1 x82.344328 y13.329173 z0)
(Block-X: g1 x82.327081 y13.302917 z0)
(Block-X: g1 x82.309017 y13.277215 z0)
(Block-X: g1 x82.290155 y13.252093 z0)
(Block-X: g1 x82.270513 y13.227576 z0)
(Block-X: g1 x82.250111 y13.203688 z0)
(Block-X: g1 x82.228969 y13.180453 z0)
(Block-X: g1 x82.207107 y13.157893 z0)
(Block-X: g1 x82.184547 y13.136031 z0)
(Block-X: g1 x82.161312 y13.114889 z0)
(Block-X: g1 x82.137424 y13.094487 z0)
(Block-X: g1 x82.112907 y13.074845 z0)
(Block-X: g1 x82.087785 y13.055983 z0)
(Block-X: g1 x82.062083 y13.037919 z0)
(Block-X: g1 x82.035827 y13.020672 z0)
(Block-X: g1 x82.009041 y13.004258 z0)
(Block-X: g1 x81.981754 y12.988693 z0)
(Block-X: g1 x81.953991 y12.973994 z0)
(Block-X: g1 x81.925779 y12.960173 z0)
(Block-X: g1 x81.897148 y12.947245 z0)
(Block-X: g1 x81.868125 y12.935223 z0)
(Block-X: g1 x81.838738 y12.924119 z0)
(Block-X: g1 x81.809017 y12.913944 z0)
(Block-X: g1 x81.778991 y12.904706 z0)
(Block-X: g1 x81.74869 y12.896417 z0)
(Block-X: g1 x81.718143 y12.889083 z0)
(Block-X: g1 x81.687381 y12.882713 z0)
(Block-X: g1 x81.656435 y12.877312 z0)
(Block-X: g1 x81.625333 y12.872885 z0)
(Block-X: g1 x81.594108 y12.869438 z0)
(Block-X: g1 x81.562791 y12.866973 z0)
(Block-X: g1 x81.531411 y12.865493 z0)
(Block-X: g1 x81.5 y12.865 z0)
(Block-X: g1 x68 y12.865 z0)
(Block-X: g1 x67.968589 y12.865493 z0)
(Block-X: g1 x67.937209 y12.866973 z0)
(Block-X: g1 x67.905892 y12.869438 z0)
(Block-X: g1 x67.874667 y12.872885 z0)
(Block-X: g1 x67.843565 y12.877312 z0)
(Block-X: g1 x67.812619 y12.882713 z0)
(Block-X: g1 x67.781857 y12.889083 z0)
(Block-X: g1 x67.75131 y12.896417 z0)
(Block-X: g1 x67.721009 y12.904706 z0)
(Block-X: g1 x67.690983 y12.913944 z0)
(Block-X: g1 x67.661262 y12.924119 z0)
(Block-X: g1 x67.631875 y12.935223 z0)
(Block-X: g1 x67.602852 y12.947245 z0)
(Block-X: g1 x67.574221 y12.960173 z0)
(Block-X: g1 x67.546009 y12.973994 z0)
(Block-X: g1 x67.518246 y12.988693 z0)
(Block-X: g1 x67.490959 y13.004258 z0)
(Block-X: g1 x67.464173 y13.020672 z0)
(Block-X: g1 x67.437917 y13.037919 z0)
(Block-X: g1 x67.412215 y13.055983 z0)
(Block-X: g1 x67.387093 y13.074845 z0)
(Block-X: g1 x67.362576 y13.094487 z0)
(Block-X: g1 x67.338688 y13.114889 z0)
(Block-X: g1 x67.315453 y13.136031 z0)
(Block-X: g1 x67.292893 y13.157893 z0)
(Block-X: g1 x67.271031 y13.180453 z0)
(Block-X: g1 x67.249889 y13.203688 z0)
(Block-X: g1 x67.229487 y13.227576 z0)
(Block-X: g1 x67.209845 y13.252093 z0)
(Block-X: g1 x67.190983 y13.277215 z0)
(Block-X: g1 x67.172919 y13.302917 z0)
(Block-X: g1 x67.155672 y13.329173 z0)
(Block-X: g1 x67.139258 y13.355959 z0)
(Block-X: g1 x67.123693 y13.383246 z0)
(Block-X: g1 x67.108993 y13.41101 z0)
(Block-X: g1 x67.095173 y13.439221 z0)
(Block-X: g1 x67.082245 y13.467852 z0)
(Block-X: g1 x67.070223 y13.496875 z0)
(Block-X: g1 x67.059119 y13.526262 z0)
(Block-X: g1 x67.048943 y13.555983 z0)
(Block-X: g1 x67.039706 y13.586009 z0)
(Block-X: g1 x67.031417 y13.61631 z0)
(Block-X: g1 x67.024083 y13.646857 z0)
(Block-X: g1 x67.017713 y13.677619 z0)
(Block-X: g1 x67.012312 y13.708566 z0)
(Block-X: g1 x67.007885 y13.739667 z0)
(Block-X: g1 x67.004438 y13.770892 z0)
(Block-X: g1 x67.001973 y13.80221 z0)
(Block-X: g1 x67.000493 y13.833589 z0)
(Block-X: g1 x67 y13.865 z0)
(Block-X: g1 x67 y29.865 z0)
(Block-X: g1 x67.000493 y29.896411 z0)
(Block-X: g1 x67.001973 y29.927791 z0)
(Block-X: g1 x67.004438 y29.959108 z0)
(Block-X: g1 x67.007885 y29.990333 z0)
(Block-X: g1 x67.012312 y30.021435 z0)
(Block-X: g1 x67.017713 y30.052381 z0)
(Block-X: g1 x67.024083 y30.083143 z0)
(Block-X: g1 x67.031417 y30.11369 z0)
(Block-X: g1 x67.039706 y30.143991 z0)
(Block-X: g1 x67.048943 y30.174017 z0)
(Block-X: g1 x67.059119 y30.203738 z0)
(Block-X: g1 x67.070223 y30.233125 z0)
(Block-X: g1 x67.082245 y30.262148 z0)
(Block-X: g1 x67.095173 y30.290779 z0)
(Block-X: g1 x67.108993 y30.318991 z0)
(Block-X: g1 x67.123693 y30.346754 z0)
(Block-X: g1 x67.139258 y30.374041 z0)
(Block-X: g1 x67.155672 y30.400827 z0)
(Block-X: g1 x67.172919 y30.427083 z0)
(Block-X: g1 x67.190983 y30.452785 z0)
(Block-X: g1 x67.209845 y30.477907 z0)
(Block-X: g1 x67.229487 y30.502424 z0)
(Block-X: g1 x67.249889 y30.526312 z0)
(Block-X: g1 x67.271031 y30.549547 z0)
(Block-X: g1 x67.292893 y30.572107 z0)
(Block-X: g1 x67.315453 y30.593969 z0)
(Block-X: g1 x67.338688 y30.615111 z0)
(Block-X: g1 x67.362576 y30.635513 z0)
(Block-X: g1 x67.387093 y30.655155 z0)
(Block-X: g1 x67.412215 y30.674017 z0)
(Block-X: g1 x67.437917 y30.692081 z0)
(Block-X: g1 x67.464173 y30.709328 z0)
(Block-X: g1 x67.490959 y30.725742 z0)
(Block-X: g1 x67.518246 y30.741307 z0)
(Block-X: g1 x67.546009 y30.756007 z0)
(Block-X: g1 x67.574221 y30.769827 z0)
(Block-X: g1 x67.602852 y30.782755 z0)
(Block-X: g1 x67.631875 y30.794777 z0)
(Block-X: g1 x67.661262 y30.805881 z0)
(Block-X: g1 x67.690983 y30.816056 z0)
(Block-X: g1 x67.721009 y30.825294 z0)
(Block-X: g1 x67.75131 y30.833583 z0)
(Block-X: g1 x67.781857 y30.840917 z0)
(Block-X: g1 x67.812619 y30.847287 z0)
(Block-X: g1 x67.843565 y30.852688 z0)
(Block-X: g1 x67.874667 y30.857115 z0)
(Block-X: g1 x67.905892 y30.860562 z0)
(Block-X: g1 x67.937209 y30.863027 z0)
(Block-X: g1 x67.968589 y30.864507 z0)
(Block-X: g1 x68 y30.865 z0)
(Block-X: g1 x81.5 y30.865 z0)
(Block-X: [exiting])
(Block-X: g0 z3)
(Block-name: Footer)
(Block-expand: 0)
(Block-enable: 1)
G0 Z10
M5
